[{"OBJECT_NAME":"KUIPER-00186","OBJECT_ID":"2025-301H","EPOCH":"2026-03-09T13:52:11.657280","MEAN_MOTION":14.79925913,"ECCENTRICITY":6.71e-5,"INCLINATION":51.9016,"RA_OF_ASC_NODE":78.6043,"ARG_OF_PERICENTER":86.8443,"MEAN_ANOMALY":273.2596,"EPHEMERIS_TYPE":0,"CLASSIFICATION_TYPE":"U","NORAD_CAT_ID":67140,"ELEMENT_SET_NO":999,"REV_AT_EPOCH":1354,"BSTAR":-0.0010121,"MEAN_MOTION_DOT":-7.926e-5,"MEAN_MOTION_DDOT":0},{"OBJECT_NAME":"FASTRAC 2 (USA 228)","OBJECT_ID":"2010-062M","EPOCH":"2026-03-09T23:32:52.018368","MEAN_MOTION":14.84460382,"ECCENTRICITY":0.00173581,"INCLINATION":71.9738,"RA_OF_ASC_NODE":6.9558,"ARG_OF_PERICENTER":295.6401,"MEAN_ANOMALY":64.2971,"EPHEMERIS_TYPE":0,"CLASSIFICATION_TYPE":"U","NORAD_CAT_ID":37380,"ELEMENT_SET_NO":999,"REV_AT_EPOCH":35105,"BSTAR":0.00019099988,"MEAN_MOTION_DOT":1.554e-5,"MEAN_MOTION_DDOT":0}]
